{
    "links": {
        "self": "http://www.neowsapp.com/rest/v1/neo/3623525?api_key=iIulBulltgU6a56xZRHN4H3l9WmuAYTsLGpBGhQ2"
    },
    "id": "3623525",
    "neo_reference_id": "3623525",
    "name": "(2013 AO20)",
    "designation": "2013 AO20",
    "nasa_jpl_url": "http://ssd.jpl.nasa.gov/sbdb.cgi?sstr=3623525",
    "absolute_magnitude_h": 21.5,
    "estimated_diameter": {
        "kilometers": {
            "estimated_diameter_min": 0.1332155667,
            "estimated_diameter_max": 0.2978790628
        },
        "meters": {
            "estimated_diameter_min": 133.2155666981,
            "estimated_diameter_max": 297.8790627982
        },
        "miles": {
            "estimated_diameter_min": 0.0827762899,
            "estimated_diameter_max": 0.1850934111
        },
        "feet": {
            "estimated_diameter_min": 437.0589598459,
            "estimated_diameter_max": 977.2935443908
        }
    },
    "is_potentially_hazardous_asteroid": false,
    "close_approach_data": [
        {
            "close_approach_date": "2012-12-30",
            "close_approach_date_full": "2012-Dec-30 22:54",
            "epoch_date_close_approach": 1356908040000,
            "relative_velocity": {
                "kilometers_per_second": "14.6964054478",
                "kilometers_per_hour": "52907.0596120836",
                "miles_per_hour": "32874.3893461861"
            },
            "miss_distance": {
                "astronomical": "0.0884005418",
                "lunar": "34.3878107602",
                "kilometers": "13224532.760125966",
                "miles": "8217343.6138556908"
            },
            "orbiting_body": "Earth"
        }
    ],
    "orbital_data": {
        "orbit_id": "13",
        "orbit_determination_date": "2017-04-06 08:47:25",
        "first_observation_date": "2013-01-06",
        "last_observation_date": "2013-02-05",
        "data_arc_in_days": 30,
        "observations_used": 59,
        "orbit_uncertainty": "7",
        "minimum_orbit_intersection": ".0888787",
        "jupiter_tisserand_invariant": "4.092",
        "epoch_osculation": "2459000.5",
        "eccentricity": ".3526663198620723",
        "semi_major_axis": "1.655576560648564",
        "inclination": "26.02422882890883",
        "ascending_node_longitude": "279.5190889592938",
        "orbital_period": "778.0765571182433",
        "perihelion_distance": "1.071710467754728",
        "perihelion_argument": "177.2254424961576",
        "aphelion_distance": "2.2394426535424",
        "perihelion_time": "2458623.777080950554",
        "mean_anomaly": "174.3019367658321",
        "mean_motion": ".4626794069382189",
        "equinox": "J2000",
        "orbit_class": {
            "orbit_class_type": "AMO",
            "orbit_class_description": "Near-Earth asteroid orbits similar to that of 1221 Amor",
            "orbit_class_range": "1.017 AU < q (perihelion) < 1.3 AU"
        }
    },
    "is_sentry_object": false
}